[{"OBJECT_NAME":"ALOS (DAICHI)","OBJECT_ID":"2006-002A","EPOCH":"2026-04-19T03:26:01.442400","MEAN_MOTION":14.69925086,"ECCENTRICITY":0.00017199,"INCLINATION":98.1281,"RA_OF_ASC_NODE":64.9168,"ARG_OF_PERICENTER":110.2389,"MEAN_ANOMALY":249.9002,"EPHEMERIS_TYPE":0,"CLASSIFICATION_TYPE":"U","NORAD_CAT_ID":28931,"ELEMENT_SET_NO":999,"REV_AT_EPOCH":7942,"BSTAR":0.00013513392,"MEAN_MOTION_DOT":7.59e-6,"MEAN_MOTION_DDOT":0},{"OBJECT_NAME":"H-2A R/B","OBJECT_ID":"2006-002B","EPOCH":"2026-04-18T20:22:04.411488","MEAN_MOTION":15.17278887,"ECCENTRICITY":0.00526064,"INCLINATION":98.2488,"RA_OF_ASC_NODE":259.3725,"ARG_OF_PERICENTER":104.9925,"MEAN_ANOMALY":255.7138,"EPHEMERIS_TYPE":0,"CLASSIFICATION_TYPE":"U","NORAD_CAT_ID":28932,"ELEMENT_SET_NO":999,"REV_AT_EPOCH":10052,"BSTAR":0.00036276628,"MEAN_MOTION_DOT":7.408e-5,"MEAN_MOTION_DDOT":0},{"OBJECT_NAME":"RESURS-DK 1","OBJECT_ID":"2006-021A","EPOCH":"2026-04-19T03:10:24.964896","MEAN_MOTION":15.1295968,"ECCENTRICITY":0.00026802,"INCLINATION":69.9296,"RA_OF_ASC_NODE":132.3927,"ARG_OF_PERICENTER":354.8422,"MEAN_ANOMALY":5.2716,"EPHEMERIS_TYPE":0,"CLASSIFICATION_TYPE":"U","NORAD_CAT_ID":29228,"ELEMENT_SET_NO":999,"REV_AT_EPOCH":9364,"BSTAR":8.8801575e-5,"MEAN_MOTION_DOT":1.462e-5,"MEAN_MOTION_DDOT":0},{"OBJECT_NAME":"CZ-4B R/B","OBJECT_ID":"2006-046C","EPOCH":"2026-04-19T02:33:35.604576","MEAN_MOTION":15.17297102,"ECCENTRICITY":0.0034402,"INCLINATION":97.5511,"RA_OF_ASC_NODE":153.9,"ARG_OF_PERICENTER":126.06,"MEAN_ANOMALY":234.3828,"EPHEMERIS_TYPE":0,"CLASSIFICATION_TYPE":"U","NORAD_CAT_ID":29507,"ELEMENT_SET_NO":999,"REV_AT_EPOCH":6617,"BSTAR":0.00017475726,"MEAN_MOTION_DOT":3.465e-5,"MEAN_MOTION_DDOT":0},{"OBJECT_NAME":"CZ-2C R/B","OBJECT_ID":"2007-010B","EPOCH":"2026-04-19T05:38:04.868448","MEAN_MOTION":14.2026056,"ECCENTRICITY":0.00591858,"INCLINATION":98.4026,"RA_OF_ASC_NODE":220.4902,"ARG_OF_PERICENTER":175.2185,"MEAN_ANOMALY":184.9571,"EPHEMERIS_TYPE":0,"CLASSIFICATION_TYPE":"U","NORAD_CAT_ID":31114,"ELEMENT_SET_NO":999,"REV_AT_EPOCH":98547,"BSTAR":5.1187588e-5,"MEAN_MOTION_DOT":7.0e-7,"MEAN_MOTION_DDOT":0},{"OBJECT_NAME":"COSMO-SKYMED 1","OBJECT_ID":"2007-023A","EPOCH":"2026-04-19T05:53:55.849920","MEAN_MOTION":14.96810504,"ECCENTRICITY":0.00011817,"INCLINATION":97.8873,"RA_OF_ASC_NODE":300.6121,"ARG_OF_PERICENTER":89.4985,"MEAN_ANOMALY":270.6371,"EPHEMERIS_TYPE":0,"CLASSIFICATION_TYPE":"U","NORAD_CAT_ID":31598,"ELEMENT_SET_NO":999,"REV_AT_EPOCH":2097,"BSTAR":0.00013437244,"MEAN_MOTION_DOT":1.479e-5,"MEAN_MOTION_DDOT":0},{"OBJECT_NAME":"COSMOS 2428","OBJECT_ID":"2007-029A","EPOCH":"2026-04-19T07:30:10.087200","MEAN_MOTION":14.12947235,"ECCENTRICITY":0.00093675,"INCLINATION":70.9395,"RA_OF_ASC_NODE":118.0791,"ARG_OF_PERICENTER":233.1985,"MEAN_ANOMALY":126.8277,"EPHEMERIS_TYPE":0,"CLASSIFICATION_TYPE":"U","NORAD_CAT_ID":31792,"ELEMENT_SET_NO":999,"REV_AT_EPOCH":96983,"BSTAR":-6.5133453e-5,"MEAN_MOTION_DOT":-1.69e-6,"MEAN_MOTION_DDOT":0},{"OBJECT_NAME":"SL-16 R/B","OBJECT_ID":"2007-029B","EPOCH":"2026-04-19T04:57:24.170400","MEAN_MOTION":14.14841757,"ECCENTRICITY":0.00026403,"INCLINATION":70.9733,"RA_OF_ASC_NODE":87.2129,"ARG_OF_PERICENTER":269.9042,"MEAN_ANOMALY":101.0235,"EPHEMERIS_TYPE":0,"CLASSIFICATION_TYPE":"U","NORAD_CAT_ID":31793,"ELEMENT_SET_NO":999,"REV_AT_EPOCH":97110,"BSTAR":5.405413e-5,"MEAN_MOTION_DOT":5.6e-7,"MEAN_MOTION_DDOT":0},{"OBJECT_NAME":"KORONAS-FOTON","OBJECT_ID":"2009-003A","EPOCH":"2026-04-19T01:53:05.359200","MEAN_MOTION":15.44413526,"ECCENTRICITY":0.00103969,"INCLINATION":82.4308,"RA_OF_ASC_NODE":233.8496,"ARG_OF_PERICENTER":15.9961,"MEAN_ANOMALY":344.1613,"EPHEMERIS_TYPE":0,"CLASSIFICATION_TYPE":"U","NORAD_CAT_ID":33504,"ELEMENT_SET_NO":999,"REV_AT_EPOCH":95197,"BSTAR":0.00024627476,"MEAN_MOTION_DOT":0.00011441,"MEAN_MOTION_DDOT":0},{"OBJECT_NAME":"CZ-2C R/B","OBJECT_ID":"2011-030B","EPOCH":"2026-04-19T03:10:41.153664","MEAN_MOTION":14.81343937,"ECCENTRICITY":0.00514444,"INCLINATION":97.861,"RA_OF_ASC_NODE":65.6088,"ARG_OF_PERICENTER":217.4777,"MEAN_ANOMALY":153.4696,"EPHEMERIS_TYPE":0,"CLASSIFICATION_TYPE":"U","NORAD_CAT_ID":37731,"ELEMENT_SET_NO":999,"REV_AT_EPOCH":79608,"BSTAR":8.6638374e-5,"MEAN_MOTION_DOT":6.37e-6,"MEAN_MOTION_DDOT":0},{"OBJECT_NAME":"H-2A R/B","OBJECT_ID":"2012-025E","EPOCH":"2026-04-19T03:30:38.232576","MEAN_MOTION":14.95417429,"ECCENTRICITY":0.00441383,"INCLINATION":98.4796,"RA_OF_ASC_NODE":79.4581,"ARG_OF_PERICENTER":178.3678,"MEAN_ANOMALY":181.7693,"EPHEMERIS_TYPE":0,"CLASSIFICATION_TYPE":"U","NORAD_CAT_ID":38341,"ELEMENT_SET_NO":999,"REV_AT_EPOCH":75426,"BSTAR":0.0001493513,"MEAN_MOTION_DOT":1.612e-5,"MEAN_MOTION_DDOT":0},{"OBJECT_NAME":"SHIJIAN-16 (SJ-16)","OBJECT_ID":"2013-057A","EPOCH":"2026-04-19T07:40:17.745312","MEAN_MOTION":14.92460833,"ECCENTRICITY":0.0015874,"INCLINATION":74.9696,"RA_OF_ASC_NODE":108.1632,"ARG_OF_PERICENTER":8.0608,"MEAN_ANOMALY":352.0832,"EPHEMERIS_TYPE":0,"CLASSIFICATION_TYPE":"U","NORAD_CAT_ID":39358,"ELEMENT_SET_NO":999,"REV_AT_EPOCH":67756,"BSTAR":1.27909e-7,"MEAN_MOTION_DOT":-2.9e-7,"MEAN_MOTION_DDOT":0},{"OBJECT_NAME":"SL-4 R/B","OBJECT_ID":"2014-021B","EPOCH":"2026-04-19T02:58:40.639008","MEAN_MOTION":15.40530065,"ECCENTRICITY":0.0093009,"INCLINATION":51.6046,"RA_OF_ASC_NODE":139.8068,"ARG_OF_PERICENTER":250.846,"MEAN_ANOMALY":108.2439,"EPHEMERIS_TYPE":0,"CLASSIFICATION_TYPE":"U","NORAD_CAT_ID":39679,"ELEMENT_SET_NO":999,"REV_AT_EPOCH":66250,"BSTAR":0.00021227892,"MEAN_MOTION_DOT":9.762e-5,"MEAN_MOTION_DDOT":0},{"OBJECT_NAME":"ALOS-2","OBJECT_ID":"2014-029A","EPOCH":"2026-04-18T13:18:38.778336","MEAN_MOTION":14.79454374,"ECCENTRICITY":0.0001772,"INCLINATION":97.9203,"RA_OF_ASC_NODE":206.5725,"ARG_OF_PERICENTER":90.6594,"MEAN_ANOMALY":269.482,"EPHEMERIS_TYPE":0,"CLASSIFICATION_TYPE":"U","NORAD_CAT_ID":39766,"ELEMENT_SET_NO":999,"REV_AT_EPOCH":64276,"BSTAR":1.616e-5,"MEAN_MOTION_DOT":6.9e-7,"MEAN_MOTION_DDOT":0},{"OBJECT_NAME":"YAOGAN-29","OBJECT_ID":"2015-069A","EPOCH":"2026-04-19T06:39:07.058592","MEAN_MOTION":14.83034486,"ECCENTRICITY":0.00012663,"INCLINATION":98.0078,"RA_OF_ASC_NODE":137.8045,"ARG_OF_PERICENTER":151.8122,"MEAN_ANOMALY":208.316,"EPHEMERIS_TYPE":0,"CLASSIFICATION_TYPE":"U","NORAD_CAT_ID":41038,"ELEMENT_SET_NO":999,"REV_AT_EPOCH":56189,"BSTAR":-1.3200483e-5,"MEAN_MOTION_DOT":-1.61e-6,"MEAN_MOTION_DDOT":0},{"OBJECT_NAME":"ASTRO-H (HITOMI)","OBJECT_ID":"2016-012A","EPOCH":"2026-04-19T06:48:35.195616","MEAN_MOTION":15.10242407,"ECCENTRICITY":0.00094863,"INCLINATION":30.9985,"RA_OF_ASC_NODE":94.5281,"ARG_OF_PERICENTER":19.4284,"MEAN_ANOMALY":340.6715,"EPHEMERIS_TYPE":0,"CLASSIFICATION_TYPE":"U","NORAD_CAT_ID":41337,"ELEMENT_SET_NO":999,"REV_AT_EPOCH":55837,"BSTAR":0.0001175417,"MEAN_MOTION_DOT":2.067e-5,"MEAN_MOTION_DDOT":0},{"OBJECT_NAME":"HXMT (HUIYAN)","OBJECT_ID":"2017-034A","EPOCH":"2026-04-19T06:02:25.937376","MEAN_MOTION":15.17950527,"ECCENTRICITY":0.00306475,"INCLINATION":43.013,"RA_OF_ASC_NODE":151.0719,"ARG_OF_PERICENTER":133.0426,"MEAN_ANOMALY":227.2996,"EPHEMERIS_TYPE":0,"CLASSIFICATION_TYPE":"U","NORAD_CAT_ID":42758,"ELEMENT_SET_NO":999,"REV_AT_EPOCH":48870,"BSTAR":0.00016484,"MEAN_MOTION_DOT":3.204e-5,"MEAN_MOTION_DDOT":0}]
