ALOS (DAICHI)           
1 28931U 06002A   26109.14307225  .00000759  00000+0  13513-3 0  9999
2 28931  98.1281  64.9168 0001719 110.2389 249.9002 14.69925086 79428
H-2A R/B                
1 28932U 06002B   26108.84866217  .00007408  00000+0  36277-3 0  9997
2 28932  98.2488 259.3725 0052606 104.9925 255.7138 15.17278887100520
RESURS-DK 1             
1 29228U 06021A   26109.13223339  .00001462  00000+0  88802-4 0  9998
2 29228  69.9296 132.3927 0002680 354.8422   5.2716 15.12959680 93646
CZ-4B R/B               
1 29507U 06046C   26109.10666209  .00003465  00000+0  17476-3 0  9992
2 29507  97.5511 153.9000 0034402 126.0600 234.3828 15.17297102 66174
CZ-2C R/B               
1 31114U 07010B   26109.23477857  .00000070  00000+0  51188-4 0  9992
2 31114  98.4026 220.4902 0059185 175.2185 184.9571 14.20260560985471
COSMO-SKYMED 1          
1 31598U 07023A   26109.24578530  .00001479  00000+0  13437-3 0  9991
2 31598  97.8873 300.6121 0001181  89.4985 270.6371 14.96810504 20979
COSMOS 2428             
1 31792U 07029A   26109.31261675 -.00000169  00000+0 -65133-4 0  9998
2 31792  70.9395 118.0791 0009367 233.1985 126.8277 14.12947235969836
SL-16 R/B               
1 31793U 07029B   26109.20652975  .00000056  00000+0  54054-4 0  9997
2 31793  70.9733  87.2129 0002640 269.9042 101.0235 14.14841757971109
KORONAS-FOTON           
1 33504U 09003A   26109.07853425  .00011441  00000+0  24627-3 0  9993
2 33504  82.4308 233.8496 0010396  15.9961 344.1613 15.44413526951975
CZ-2C R/B               
1 37731U 11030B   26109.13242076  .00000637  00000+0  86638-4 0  9999
2 37731  97.8610  65.6088 0051444 217.4777 153.4696 14.81343937796087
H-2A R/B                
1 38341U 12025E   26109.14627584  .00001612  00000+0  14935-3 0  9998
2 38341  98.4796  79.4581 0044138 178.3678 181.7693 14.95417429754263
SHIJIAN-16 (SJ-16)      
1 39358U 13057A   26109.31964983 -.00000029  00000+0  12791-6 0  9992
2 39358  74.9696 108.1632 0015874   8.0608 352.0832 14.92460833677563
SL-4 R/B                
1 39679U 14021B   26109.12408147  .00009762  00000+0  21228-3 0  9998
2 39679  51.6046 139.8068 0093009 250.8460 108.2439 15.40530065662504
ALOS-2                  
1 39766U 14029A   26108.55461549  .00000069  00000+0  16160-4 0  9995
2 39766  97.9203 206.5725 0001772  90.6594 269.4820 14.79454374642764
YAOGAN-29               
1 41038U 15069A   26109.27716503 -.00000161  00000+0 -13200-4 0  9995
2 41038  98.0078 137.8045 0001266 151.8122 208.3160 14.83034486561893
ASTRO-H (HITOMI)        
1 41337U 16012A   26109.28374069  .00002067  00000+0  11754-3 0  9990
2 41337  30.9985  94.5281 0009486  19.4284 340.6715 15.10242407558378
HXMT (HUIYAN)           
1 42758U 17034A   26109.25168909  .00003204  00000+0  16484-3 0  9993
2 42758  43.0130 151.0719 0030647 133.0426 227.2996 15.17950527488708
